{
  "type": "FeatureCollection",
  "features": [
    {
      "type": "Feature",
      "properties": {
        "norad_id": 66579,
        "name": "STARLINK-35868",
        "group": "last-30-days",
        "lat": 12.982581843389095,
        "lon": 157.3942962375185,
        "alt_km": 410.1015037786128,
        "timestamp": "2025-12-08T23:34:02.740164+00:00",
        "meta_object_name": "STARLINK-35868",
        "meta_object_id": "2025-268Y",
        "meta_epoch": "2025-12-08T14:00:01.999872",
        "meta_mean_motion": 15.53229608,
        "meta_eccentricity": 0.00013189,
        "meta_inclination": 43.0002,
        "meta_ra_of_asc_node": 145.4088,
        "meta_arg_of_pericenter": 262.2384,
        "meta_mean_anomaly": 46.5782,
        "meta_ephemeris_type": 0,
        "meta_classification_type": "U",
        "meta_norad_cat_id": 66579,
        "meta_element_set_no": 999,
        "meta_rev_at_epoch": 400,
        "meta_bstar": -0.03096866,
        "meta_mean_motion_dot": -0.01777248,
        "meta_mean_motion_ddot": 0,
        "tle_line1": "1 66579U 25268Y   25342.58335648 -.01777248  00000+0 -30969-1 0  9999",
        "tle_line2": "2 66579  43.0002 145.4088 0001318 262.2384  46.5782 15.53229608  4001"
      },
      "geometry": {
        "type": "Point",
        "coordinates": [
          157.3942962375185,
          12.982581843389095
        ]
      }
    },
    {
      "type": "Feature",
      "properties": {
        "norad_id": 66580,
        "name": "STARLINK-35872",
        "group": "last-30-days",
        "lat": 14.24455038411369,
        "lon": 158.87503038345017,
        "alt_km": 410.0026520173251,
        "timestamp": "2025-12-08T23:34:02.740178+00:00",
        "meta_object_name": "STARLINK-35872",
        "meta_object_id": "2025-268Z",
        "meta_epoch": "2025-12-08T14:00:01.999872",
        "meta_mean_motion": 15.53225005,
        "meta_eccentricity": 0.00012394,
        "meta_inclination": 43.0002,
        "meta_ra_of_asc_node": 145.4047,
        "meta_arg_of_pericenter": 257.0519,
        "meta_mean_anomaly": 53.6836,
        "meta_ephemeris_type": 0,
        "meta_classification_type": "U",
        "meta_norad_cat_id": 66580,
        "meta_element_set_no": 999,
        "meta_rev_at_epoch": 400,
        "meta_bstar": -0.030817547,
        "meta_mean_motion_dot": -0.01769223,
        "meta_mean_motion_ddot": 0,
        "tle_line1": "1 66580U 25268Z   25342.58335648 -.01769223  00000+0 -30818-1 0  9998",
        "tle_line2": "2 66580  43.0002 145.4047 0001239 257.0519  53.6836 15.53225005  4008"
      },
      "geometry": {
        "type": "Point",
        "coordinates": [
          158.87503038345017,
          14.24455038411369
        ]
      }
    },
    {
      "type": "Feature",
      "properties": {
        "norad_id": 66581,
        "name": "STARLINK-35744",
        "group": "last-30-days",
        "lat": 15.498433836050088,
        "lon": 160.3722842419063,
        "alt_km": 409.8207402727576,
        "timestamp": "2025-12-08T23:34:02.740190+00:00",
        "meta_object_name": "STARLINK-35744",
        "meta_object_id": "2025-268AA",
        "meta_epoch": "2025-12-08T14:00:01.999872",
        "meta_mean_motion": 15.53229083,
        "meta_eccentricity": 0.00012879,
        "meta_inclination": 43.0003,
        "meta_ra_of_asc_node": 145.3991,
        "meta_arg_of_pericenter": 259.4085,
        "meta_mean_anomaly": 53.2426,
        "meta_ephemeris_type": 0,
        "meta_classification_type": "U",
        "meta_norad_cat_id": 66581,
        "meta_element_set_no": 999,
        "meta_rev_at_epoch": 395,
        "meta_bstar": -0.030939397,
        "meta_mean_motion_dot": -0.01775707,
        "meta_mean_motion_ddot": 0,
        "tle_line1": "1 66581U 25268AA  25342.58335648 -.01775707  00000+0 -30939-1 0  9997",
        "tle_line2": "2 66581  43.0003 145.3991 0001287 259.4085  53.2426 15.53229083  3958"
      },
      "geometry": {
        "type": "Point",
        "coordinates": [
          160.3722842419063,
          15.498433836050088
        ]
      }
    },
    {
      "type": "Feature",
      "properties": {
        "norad_id": 66582,
        "name": "STARLINK-35746",
        "group": "last-30-days",
        "lat": 16.74159504441507,
        "lon": 161.88795847831605,
        "alt_km": 409.666445295893,
        "timestamp": "2025-12-08T23:34:02.740200+00:00",
        "meta_object_name": "STARLINK-35746",
        "meta_object_id": "2025-268AB",
        "meta_epoch": "2025-12-08T14:00:01.999872",
        "meta_mean_motion": 15.53224787,
        "meta_eccentricity": 0.00013039,
        "meta_inclination": 43.0004,
        "meta_ra_of_asc_node": 145.3942,
        "meta_arg_of_pericenter": 259.1762,
        "meta_mean_anomaly": 55.3945,
        "meta_ephemeris_type": 0,
        "meta_classification_type": "U",
        "meta_norad_cat_id": 66582,
        "meta_element_set_no": 999,
        "meta_rev_at_epoch": 400,
        "meta_bstar": -0.030842396,
        "meta_mean_motion_dot": -0.01770514,
        "meta_mean_motion_ddot": 0,
        "tle_line1": "1 66582U 25268AB  25342.58335648 -.01770514  00000+0 -30842-1 0  9992",
        "tle_line2": "2 66582  43.0004 145.3942 0001303 259.1762  55.3945 15.53224787  4006"
      },
      "geometry": {
        "type": "Point",
        "coordinates": [
          161.88795847831605,
          16.74159504441507
        ]
      }
    },
    {
      "type": "Feature",
      "properties": {
        "norad_id": 66583,
        "name": "STARLINK-35941",
        "group": "last-30-days",
        "lat": 17.98195828935326,
        "lon": 163.4337553705357,
        "alt_km": 409.55444463773983,
        "timestamp": "2025-12-08T23:34:02.740210+00:00",
        "meta_object_name": "STARLINK-35941",
        "meta_object_id": "2025-268AC",
        "meta_epoch": "2025-12-08T14:00:01.999872",
        "meta_mean_motion": 15.5324973,
        "meta_eccentricity": 0.00017528,
        "meta_inclination": 43.0007,
        "meta_ra_of_asc_node": 145.389,
        "meta_arg_of_pericenter": 265.2525,
        "meta_mean_anomaly": 51.2269,
        "meta_ephemeris_type": 0,
        "meta_classification_type": "U",
        "meta_norad_cat_id": 66583,
        "meta_element_set_no": 999,
        "meta_rev_at_epoch": 400,
        "meta_bstar": -0.031377623,
        "meta_mean_motion_dot": -0.01799515,
        "meta_mean_motion_ddot": 0,
        "tle_line1": "1 66583U 25268AC  25342.58335648 -.01799515  00000+0 -31378-1 0  9990",
        "tle_line2": "2 66583  43.0007 145.3890 0001752 265.2525  51.2269 15.53249730  4004"
      },
      "geometry": {
        "type": "Point",
        "coordinates": [
          163.4337553705357,
          17.98195828935326
        ]
      }
    },
    {
      "type": "Feature",
      "properties": {
        "norad_id": 66584,
        "name": "STARLINK-35939",
        "group": "last-30-days",
        "lat": 19.201815445876644,
        "lon": 164.9915748981475,
        "alt_km": 409.3635559061113,
        "timestamp": "2025-12-08T23:34:02.740220+00:00",
        "meta_object_name": "STARLINK-35939",
        "meta_object_id": "2025-268AD",
        "meta_epoch": "2025-12-08T14:00:01.999872",
        "meta_mean_motion": 15.53240956,
        "meta_eccentricity": 0.00017109,
        "meta_inclination": 43.0008,
        "meta_ra_of_asc_node": 145.3842,
        "meta_arg_of_pericenter": 265.7285,
        "meta_mean_anomaly": 52.6719,
        "meta_ephemeris_type": 0,
        "meta_classification_type": "U",
        "meta_norad_cat_id": 66584,
        "meta_element_set_no": 999,
        "meta_rev_at_epoch": 400,
        "meta_bstar": -0.031118444,
        "meta_mean_motion_dot": -0.01785769,
        "meta_mean_motion_ddot": 0,
        "tle_line1": "1 66584U 25268AD  25342.58335648 -.01785769  00000+0 -31118-1 0  9999",
        "tle_line2": "2 66584  43.0008 145.3842 0001710 265.7285  52.6719 15.53240956  4001"
      },
      "geometry": {
        "type": "Point",
        "coordinates": [
          164.9915748981475,
          19.201815445876644
        ]
      }
    },
    {
      "type": "Feature",
      "properties": {
        "norad_id": 66585,
        "name": "STARLINK-35963",
        "group": "last-30-days",
        "lat": 20.42463745213929,
        "lon": 166.59543235849384,
        "alt_km": 409.1393904952174,
        "timestamp": "2025-12-08T23:34:02.740230+00:00",
        "meta_object_name": "STARLINK-35963",
        "meta_object_id": "2025-268AE",
        "meta_epoch": "2025-12-08T14:00:01.999872",
        "meta_mean_motion": 15.53231658,
        "meta_eccentricity": 0.00015143,
        "meta_inclination": 43.0007,
        "meta_ra_of_asc_node": 145.3803,
        "meta_arg_of_pericenter": 257.3073,
        "meta_mean_anomaly": 63.0083,
        "meta_ephemeris_type": 0,
        "meta_classification_type": "U",
        "meta_norad_cat_id": 66585,
        "meta_element_set_no": 999,
        "meta_rev_at_epoch": 400,
        "meta_bstar": -0.029833737,
        "meta_mean_motion_dot": -0.01719289,
        "meta_mean_motion_ddot": 0,
        "tle_line1": "1 66585U 25268AE  25342.58335648 -.01719289  00000+0 -29834-1 0  9996",
        "tle_line2": "2 66585  43.0007 145.3803 0001514 257.3073  63.0083 15.53231658  4001"
      },
      "geometry": {
        "type": "Point",
        "coordinates": [
          166.59543235849384,
          20.42463745213929
        ]
      }
    }
  ]
}